OBJECT_NAME,OBJECT_ID,EPOCH,MEAN_MOTION,ECCENTRICITY,INCLINATION,RA_OF_ASC_NODE,ARG_OF_PERICENTER,MEAN_ANOMALY,EPHEMERIS_TYPE,CLASSIFICATION_TYPE,NORAD_CAT_ID,ELEMENT_SET_NO,REV_AT_EPOCH,BSTAR,MEAN_MOTION_DOT,MEAN_MOTION_DDOT
LUDI TANCE-4 01A,2023-120A,2026-07-13T21:29:10.301568,1.00276002,.0001372,15.0872,193.3078,18.9616,131.2713,0,U,57624,999,1081,0,-.179E-5,0
TJS-10,2023-169A,2026-07-13T17:52:09.208128,1.00274171,.0004074,2.6105,80.1722,115.9637,95.8858,0,U,58204,999,980,0,-.256E-5,0
ZHONGXING-6E,2023-172A,2026-07-13T17:26:06.711648,1.00272481,.000267,0.0161,84.1007,26.2266,198.3062,0,U,58253,999,992,0,-.366E-5,0
YAOGAN-41,2023-197A,2026-07-14T05:26:46.707936,1.00266052,.0014257,3.0806,313.5655,198.6922,344.6524,0,U,58582,999,959,0,-.365E-5,0
OVZON-3,2024-003A,2026-07-13T05:11:37.493088,1.00269534,.0000327,0.0179,86.9492,215.9338,125.7993,0,U,58698,999,770,0,.49E-6,0
INSAT-3DS,2024-033A,2026-07-14T01:49:50.611008,1.00270977,.0001033,0.0945,264.9386,225.5076,271.0287,0,U,58990,999,4733,0,-.162E-5,0
MERAH PUTIH 2,2024-035A,2026-07-14T01:58:42.262176,1.00270663,.0001053,0.0209,81.5819,34.7666,318.2325,0,U,58995,999,885,0,-.364E-5,0
TJS-11,2024-037A,2026-07-14T05:23:54.483360,1.00274115,.0001789,4.1645,327.4164,149.4355,8.7674,0,U,59020,999,885,0,-.365E-5,0
HULIANWAN GAOGUI-01 (HG-01),2024-040A,2026-07-14T03:18:38.739168,1.00269526,.0001691,0.0743,332.8807,69.9442,332.4541,0,U,59069,999,759,0,.15E-5,0
EUTELSAT 36D,2024-059A,2026-07-14T03:19:16.178016,1.00269854,.00002,0.0279,60.5237,200.4613,116.7239,0,U,59346,999,841,0,0,0
PAKSAT-MM1,2024-104A,2026-07-13T13:38:44.797056,1.00269751,.0001963,0.0311,143.3666,313.2921,77.6097,0,U,59915,999,779,0,.15E-5,0
ASTRA 1P (SES-24),2024-115A,2026-07-13T08:25:18.669792,1.00281209,.00014971,0.0666,329.5187,236.9138,230.3347,0,U,60086,999,746,0,.118E-5,0
GOES 19,2024-119A,2026-07-14T04:36:25.278336,1.00271733,.000043,0.0062,158.9836,55.9599,71.0213,0,U,60133,999,723,0,-.255E-5,0
ZHONGXING-3A,2024-122A,2026-07-14T01:55:27.572736,1.00270027,.0001581,0.0264,122.6465,43.7146,256.0432,0,U,60179,999,757,0,-.319E-5,0
TURKSAT 6A,2024-127A,2026-07-14T03:21:01.012320,1.00269309,.0002911,0.0170,218.0896,312.1404,214.0113,0,U,60233,999,728,0,0,0
HULIANWAN GAOGUI-02 (HG-02),2024-135A,2026-07-13T22:44:50.059968,1.00269650,.0006328,0.0466,355.6775,11.8788,58.4956,0,U,60327,999,776,0,-.18E-5,0
ZHONGXING-4A,2024-151A,2026-07-14T01:59:57.140736,1.00267796,.0000401,1.2466,270.5052,303.3587,226.2645,0,U,60606,999,702,0,-.367E-5,0
HULIANWAN GAOGUI-03 (HG-03),2024-181A,2026-07-14T05:33:25.143264,1.00269232,.0001049,0.0509,358.3845,87.0998,212.8455,0,U,61503,999,709,0,-.248E-5,0
DSN-3 (KIRAMEKI-3),2024-198A,2026-07-14T03:50:13.212096,1.00270084,.0000815,0.0242,51.4007,91.4827,350.7748,0,U,61733,999,619,0,0,0
KOREASAT 6A,2024-206A,2026-07-14T00:16:54.005088,1.00270652,.0000689,0.0154,81.6149,9.5196,320.9815,0,U,61910,999,610,0,-.368E-5,0
OPTUS-X (ADS-01),2024-212A,2026-07-14T03:53:42.877248,1.00270030,.0002366,0.0135,52.0915,102.3268,352.4236,0,U,62006,999,603,0,-.15E-5,0
GSAT-N2 (GSAT-20),2024-214A,2026-07-14T03:28:30.294048,1.00270807,.0002621,0.0775,262.8950,142.1979,6.9738,0,U,62028,999,616,0,-.25E-6,0
SXM-9,2024-234A,2026-07-14T02:44:43.658016,1.00270975,.0005061,0.0198,331.3238,347.4109,289.2649,0,U,62259,999,584,0,-.211E-5,0
TJS-12,2024-246A,2026-07-13T21:00:19.367424,1.00269200,.0001763,0.6144,301.9238,96.0718,355.3645,0,U,62374,999,583,0,-.236E-5,0
NUVIEW ALPHA,2024-252B,2026-07-14T02:45:21.097728,1.00271190,.0000963,0.0422,24.1236,55.3171,170.7721,0,U,62455,999,409,0,-.221E-5,0
AGILA,2024-252C,2026-07-13T07:25:27.757056,1.00273104,.000134,0.0473,136.4641,16.3373,41.9275,0,U,62456,999,542,0,-.184E-5,0
NUVIEW BRAVO,2024-252D,2026-07-14T01:02:47.560128,1.00268739,.0001408,0.0691,166.2981,346.1076,72.0881,0,U,62457,999,406,0,-.221E-5,0
THURAYA-4,2025-001A,2026-07-12T21:39:38.784672,1.00272578,.00002295,0.0194,68.8467,203.8382,27.3208,0,U,62483,999,443,0,.138E-5,0
SHIJIAN-25 (SJ-25),2025-002A,2026-07-13T12:21:30.377088,1.00262897,.0052162,5.1734,60.9955,175.3750,7.5757,0,U,62485,999,562,0,-.359E-5,0
TJS-14,2025-017A,2026-07-14T04:56:57.067584,1.00275413,.0001824,0.7233,297.6391,294.4617,152.6574,0,U,62804,999,554,0,.11E-5,0
SPAINSAT NG I,2025-021A,2026-07-13T11:53:18.425760,1.00271360,.00001965,0.0150,49.4669,192.7005,256.5149,0,U,62852,999,425,0,.148E-5,0
QZS-6 (MICHIBIKI-6),2025-023A,2026-07-14T03:34:52.182912,1.00267206,.0001784,0.0113,352.0097,140.4734,303.6901,0,U,62876,999,521,0,-.238E-5,0
