LUDI TANCE-4 01A        
1 57624U 23120A   26194.89525812 -.00000179  00000+0  00000+0 0  9990
2 57624  15.0872 193.3078 0001372  18.9616 131.2713  1.00276002 10810
TJS-10                  
1 58204U 23169A   26194.74455102 -.00000256  00000+0  00000+0 0  9992
2 58204   2.6105  80.1722 0004074 115.9637  95.8858  1.00274171  9805
ZHONGXING-6E            
1 58253U 23172A   26194.72646657 -.00000366  00000+0  00000+0 0  9997
2 58253   0.0161  84.1007 0002670  26.2266 198.3062  1.00272481  9926
YAOGAN-41               
1 58582U 23197A   26195.22692949 -.00000365  00000+0  00000+0 0  9999
2 58582   3.0806 313.5655 0014257 198.6922 344.6524  1.00266052  9594
OVZON-3                 
1 58698U 24003A   26194.21640617  .00000049  00000+0  00000+0 0  9995
2 58698   0.0179  86.9492 0000327 215.9338 125.7993  1.00269534  7706
INSAT-3DS               
1 58990U 24033A   26195.07628022 -.00000162  00000+0  00000+0 0  9991
2 58990   0.0945 264.9386 0001033 225.5076 271.0287  1.00270977 47330
MERAH PUTIH 2           
1 58995U 24035A   26195.08243359 -.00000364  00000+0  00000+0 0  9999
2 58995   0.0209  81.5819 0001053  34.7666 318.2325  1.00270663  8852
TJS-11                  
1 59020U 24037A   26195.22493615 -.00000365  00000+0  00000+0 0  9990
2 59020   4.1645 327.4164 0001789 149.4355   8.7674  1.00274115  8855
HULIANWAN GAOGUI-01 (H*)
1 59069U 24040A   26195.13794837  .00000150  00000+0  00000+0 0  9998
2 59069   0.0743 332.8807 0001691  69.9442 332.4541  1.00269526  7591
EUTELSAT 36D            
1 59346U 24059A   26195.13838169  .00000000  00000+0  00000+0 0  9997
2 59346   0.0279  60.5237 0000200 200.4613 116.7239  1.00269854  8415
PAKSAT-MM1              
1 59915U 24104A   26194.56857404  .00000150  00000+0  00000+0 0  9995
2 59915   0.0311 143.3666 0001963 313.2921  77.6097  1.00269751  7795
ASTRA 1P (SES-24)       
1 60086U 24115A   26194.35091053  .00000118  00000+0  00000+0 0  9999
2 60086   0.0666 329.5187 0001497 236.9138 230.3347  1.00281209  7460
GOES 19                 
1 60133U 24119A   26195.19195924 -.00000255  00000+0  00000+0 0  9994
2 60133   0.0062 158.9836 0000430  55.9599  71.0213  1.00271733  7232
ZHONGXING-3A            
1 60179U 24122A   26195.08018024 -.00000319  00000+0  00000+0 0  9992
2 60179   0.0264 122.6465 0001581  43.7146 256.0432  1.00270027  7573
TURKSAT 6A              
1 60233U 24127A   26195.13959505  .00000000  00000+0  00000+0 0  9998
2 60233   0.0170 218.0896 0002911 312.1404 214.0113  1.00269309  7285
HULIANWAN GAOGUI-02 (H*)
1 60327U 24135A   26194.94780162 -.00000180  00000+0  00000+0 0  9990
2 60327   0.0466 355.6775 0006328  11.8788  58.4956  1.00269650  7762
ZHONGXING-4A            
1 60606U 24151A   26195.08330024 -.00000367  00000+0  00000+0 0  9999
2 60606   1.2466 270.5052 0000401 303.3587 226.2645  1.00267796  7028
HULIANWAN GAOGUI-03 (H*)
1 61503U 24181A   26195.23154101 -.00000248  00000+0  00000+0 0  9994
2 61503   0.0509 358.3845 0001049  87.0998 212.8455  1.00269232  7090
DSN-3 (KIRAMEKI-3)      
1 61733U 24198A   26195.15987514  .00000000  00000+0  00000+0 0  9995
2 61733   0.0242  51.4007 0000815  91.4827 350.7748  1.00270084  6194
KOREASAT 6A             
1 61910U 24206A   26195.01173617 -.00000368  00000+0  00000+0 0  9996
2 61910   0.0154  81.6149 0000689   9.5196 320.9815  1.00270652  6109
OPTUS-X (ADS-01)        
1 62006U 24212A   26195.16230182 -.00000150  00000+0  00000+0 0  9996
2 62006   0.0135  52.0915 0002366 102.3268 352.4236  1.00270030  6033
GSAT-N2 (GSAT-20)       
1 62028U 24214A   26195.14479507 -.00000025  00000+0  00000+0 0  9997
2 62028   0.0775 262.8950 0002621 142.1979   6.9738  1.00270807  6166
SXM-9                   
1 62259U 24234A   26195.11439419 -.00000211  00000+0  00000+0 0  9997
2 62259   0.0198 331.3238 0005061 347.4109 289.2649  1.00270975  5845
TJS-12                  
1 62374U 24246A   26194.87522416 -.00000236  00000+0  00000+0 0  9997
2 62374   0.6144 301.9238 0001763  96.0718 355.3645  1.00269200  5830
NUVIEW ALPHA            
1 62455U 24252B   26195.11482752 -.00000221  00000+0  00000+0 0  9994
2 62455   0.0422  24.1236 0000963  55.3171 170.7721  1.00271190  4099
AGILA                   
1 62456U 24252C   26194.30934904 -.00000184  00000+0  00000+0 0  9994
2 62456   0.0473 136.4641 0001340  16.3373  41.9275  1.00273104  5422
NUVIEW BRAVO            
1 62457U 24252D   26195.04360602 -.00000221  00000+0  00000+0 0  9997
2 62457   0.0691 166.2981 0001408 346.1076  72.0881  1.00268739  4067
THURAYA-4               
1 62483U 25001A   26193.90253223  .00000138  00000+0  00000+0 0  9998
2 62483   0.0194  68.8467 0000229 203.8382  27.3208  1.00272578  4432
SHIJIAN-25 (SJ-25)      
1 62485U 25002A   26194.51493492 -.00000359  00000+0  00000+0 0  9999
2 62485   5.1734  60.9955 0052162 175.3750   7.5757  1.00262897  5624
TJS-14                  
1 62804U 25017A   26195.20621606  .00000110  00000+0  00000+0 0  9991
2 62804   0.7233 297.6391 0001824 294.4617 152.6574  1.00275413  5549
SPAINSAT NG I           
1 62852U 25021A   26194.49535215  .00000148  00000+0  00000+0 0  9990
2 62852   0.0150  49.4669 0000196 192.7005 256.5149  1.00271360  4252
QZS-6 (MICHIBIKI-6)     
1 62876U 25023A   26195.14921508 -.00000238  00000+0  00000+0 0  9996
2 62876   0.0113 352.0097 0001784 140.4734 303.6901  1.00267206  5219
